{"0": {"eid": 0, "raw_eid": 307804459, "highway": "secondary", "coords": [[41.1458486, -8.6108311], [41.1459204, -8.6107847]], "length": 8.87898574162022}, "32": {"eid": 32, "raw_eid": 1184851191, "highway": "secondary", "coords": [[41.1458486, -8.6108311], [41.1458255, -8.6108337]], "length": 2.57781603849683}, "1": {"eid": 1, "raw_eid": 307804459, "highway": "secondary", "coords": [[41.1459204, -8.6107847], [41.1459681, -8.6107605]], "length": 5.677905301874148}, "10": {"eid": 10, "raw_eid": 715176795, "highway": "secondary", "coords": [[41.1458255, -8.6108337], [41.1453342, -8.610908]], "length": 54.98326194775967}, "2": {"eid": 2, "raw_eid": 307804459, "highway": "secondary", "coords": [[41.1459681, -8.6107605], [41.1460101, -8.610725]], "length": 5.535952292607062}, "3": {"eid": 3, "raw_eid": 307804459, "highway": "secondary", "coords": [[41.1460101, -8.610725], [41.1460194, -8.6107172]], "length": 1.223095602620296}, "25": {"eid": 25, "raw_eid": 715176797, "highway": "secondary", "coords": [[41.1460194, -8.6107172], [41.1460475, -8.6106678]], "length": 5.183938806569028}, "26": {"eid": 26, "raw_eid": 715176797, "highway": "secondary", "coords": [[41.1460475, -8.6106678], [41.1460547, -8.6106536]], "length": 1.4334346548671137}, "4": {"eid": 4, "raw_eid": 608420971, "highway": "secondary", "coords": [[41.1464575, -8.6112255], [41.1462711, -8.6112671]], "length": 21.017424503880655}, "5": {"eid": 5, "raw_eid": 608420971, "highway": "secondary", "coords": [[41.1462711, -8.6112671], [41.1462163, -8.6112793]], "length": 6.17852628567544}, "28": {"eid": 28, "raw_eid": 763524494, "highway": "secondary", "coords": [[41.1462163, -8.6112793], [41.1460555, -8.6113163]], "length": 18.146595850512462}, "6": {"eid": 6, "raw_eid": 608420973, "highway": "secondary", "coords": [[41.1460555, -8.6113163], [41.1460434, -8.6116329]], "length": 26.54423106338072}, "29": {"eid": 29, "raw_eid": 1001166327, "highway": "secondary", "coords": [[41.1460434, -8.6116329], [41.1460028, -8.6121002]], "length": 39.388376693680556}, "30": {"eid": 30, "raw_eid": 1001166327, "highway": "secondary", "coords": [[41.1460028, -8.6121002], [41.1459905, -8.6122361]], "length": 11.46132543652941}, "11": {"eid": 11, "raw_eid": 715176795, "highway": "secondary", "coords": [[41.1453342, -8.610908], [41.1452627, -8.6109196]], "length": 8.009562695885645}, "12": {"eid": 12, "raw_eid": 715176795, "highway": "secondary", "coords": [[41.1452627, -8.6109196], [41.1451983, -8.6109341]], "length": 7.263164931003165}, "13": {"eid": 13, "raw_eid": 715176796, "highway": "secondary", "coords": [[41.1461138, -8.6105488], [41.1462224, -8.6103531]], "length": 20.355527387652796}, "14": {"eid": 14, "raw_eid": 715176796, "highway": "secondary", "coords": [[41.1462224, -8.6103531], [41.1462586, -8.6102893]], "length": 6.688932639998368}, "15": {"eid": 15, "raw_eid": 715176796, "highway": "secondary", "coords": [[41.1462586, -8.6102893], [41.1465904, -8.6097629]], "length": 57.480482708530374}, "16": {"eid": 16, "raw_eid": 715176796, "highway": "secondary", "coords": [[41.1465904, -8.6097629], [41.1466801, -8.6096241]], "length": 15.315313977084868}, "17": {"eid": 17, "raw_eid": 715176796, "highway": "secondary", "coords": [[41.1466801, -8.6096241], [41.146735, -8.6094973]], "length": 12.247206293948345}, "18": {"eid": 18, "raw_eid": 715176796, "highway": "secondary", "coords": [[41.146735, -8.6094973], [41.146757, -8.6093182]], "length": 15.194772047169337}, "19": {"eid": 19, "raw_eid": 715176796, "highway": "secondary", "coords": [[41.146757, -8.6093182], [41.1467864, -8.6090744]], "length": 20.67417189481004}, "20": {"eid": 20, "raw_eid": 715176796, "highway": "secondary", "coords": [[41.1467864, -8.6090744], [41.1467951, -8.6090354]], "length": 3.4058581336266887}, "21": {"eid": 21, "raw_eid": 715176796, "highway": "secondary", "coords": [[41.1467951, -8.6090354], [41.1468128, -8.609007]], "length": 3.0868373673391236}, "22": {"eid": 22, "raw_eid": 715176796, "highway": "secondary", "coords": [[41.1468128, -8.609007], [41.1469041, -8.6089444]], "length": 11.425429867401853}, "23": {"eid": 23, "raw_eid": 715176796, "highway": "secondary", "coords": [[41.1469041, -8.6089444], [41.1472889, -8.6087189]], "length": 46.7687793024013}, "24": {"eid": 24, "raw_eid": 715176796, "highway": "secondary", "coords": [[41.1472889, -8.6087189], [41.1473966, -8.6086641]], "length": 12.824669447307924}, "27": {"eid": 27, "raw_eid": 715176797, "highway": "secondary", "coords": [[41.1460547, -8.6106536], [41.1461138, -8.6105488]], "length": 10.96321551983477}}